NORAD_CAT_ID,OBJECT_NAME,OBJECT_TYPE,EPOCH,MEAN_MOTION,ECCENTRICITY,INCLINATION,RA_OF_ASC_NODE,ARG_OF_PERICENTER,MEAN_ANOMALY,BSTAR,MEAN_MOTION_DOT,MEAN_MOTION_DDOT,TLE_LINE0,TLE_LINE1,TLE_LINE2,SEMIMAJOR_AXIS,PERIOD,APOGEE,PERIGEE,DECAYED
53174.0,STARLINK-4205,PAYLOAD,2024-01-08 07:35:47,15.08839682,0.000125,53.2185,126.6623,107.7714,252.3415,-3.4117e-05,-8.31e-06,0.0,0 STARLINK-4205,1 53174U 22083AU  24008.31652188 -.00000831  00000-0 -34117-4 0  9997,2 53174  53.2185 126.6623 0001250 107.7714 252.3415 15.08839682 82380,6917.881,95.438,540.611,538.882,0.0
53174.0,STARLINK-4205,PAYLOAD,2024-01-08 13:57:19,15.0884489,0.0001566,53.2178,125.4781,88.0173,272.0999,1.8151e-05,1e-08,0.0,0 STARLINK-4205,1 53174U 22083AU  24008.58147748  .00000001  00000-0  18151-4 0  9994,2 53174  53.2178 125.4781 0001566  88.0173 272.0999 15.08844890 81780,6917.865,95.437,540.814,538.647,0.0
53174.0,STARLINK-4205,PAYLOAD,2024-01-09 13:48:06,15.08841911,0.0001665,53.2178,121.0187,67.0691,293.0477,6.3315e-05,7.2e-06,0.0,0 STARLINK-4205,1 53174U 22083AU  24009.57507776  .00000720  00000-0  63315-4 0  9995,2 53174  53.2178 121.0187 0001665  67.0691 293.0477 15.08841911 81936,6917.875,95.437,540.891,538.588,0.0
53174.0,STARLINK-4205,PAYLOAD,2024-01-09 16:58:52,15.08848174,0.0001472,53.2171,120.4201,103.6008,256.5148,6.8979e-05,8.1e-06,0.0,0 STARLINK-4205,1 53174U 22083AU  24009.70755085  .00000810  00000-0  68979-4 0  9999,2 53174  53.2171 120.4201 0001472 103.6008 256.5148 15.08848174 82594,6917.855,95.437,540.739,538.702,0.0
53174.0,STARLINK-4205,PAYLOAD,2024-01-10 10:28:07,15.08845432,0.0001793,53.2158,117.1461,121.4248,238.692,-2.3029e-05,-6.55e-06,0.0,0 STARLINK-4205,1 53174U 22083AU  24010.43619390 -.00000655  00000-0 -23029-4 0  9995,2 53174  53.2158 117.1461 0001793 121.4248 238.6920 15.08845432 82706,6917.864,95.437,540.969,538.488,0.0
53174.0,STARLINK-4205,PAYLOAD,2024-01-11 11:54:17,15.08842436,0.0001411,53.2171,112.3881,91.531,268.5844,1.5691e-05,-3.8e-07,0.0,0 STARLINK-4205,1 53174U 22083AU  24011.49603762 -.00000038  00000-0  15691-4 0  9998,2 53174  53.2171 112.3881 0001411  91.5310 268.5844 15.08842436 82863,6917.873,95.437,540.714,538.762,0.0
53174.0,STARLINK-4205,PAYLOAD,2024-01-11 13:29:40,15.08844836,0.0001402,53.2172,112.0907,93.0567,267.0586,3.6716e-05,2.97e-06,0.0,0 STARLINK-4205,1 53174U 22083AU  24011.56227549  .00000297  00000-0  36716-4 0  9998,2 53174  53.2172 112.0907 0001402  93.0567 267.0586 15.08844836 82235,6917.866,95.437,540.7,538.761,0.0
53174.0,STARLINK-4205,PAYLOAD,2024-01-12 11:45:05,15.08839522,0.0001294,53.2167,107.9295,96.3851,263.7288,2.7304e-05,1.47e-06,0.0,0 STARLINK-4205,1 53174U 22083AU  24012.48964173  .00000147  00000-0  27304-4 0  9998,2 53174  53.2167 107.9295 0001294  96.3851 263.7288 15.08839522 83018,6917.882,95.438,540.642,538.852,0.0
53174.0,STARLINK-4205,PAYLOAD,2024-01-13 11:35:52,15.08840521,0.0001307,53.216,103.4697,101.5071,258.6068,4.9009e-05,4.92e-06,0.0,0 STARLINK-4205,1 53174U 22083AU  24013.48324383  .00000492  00000-0  49009-4 0  9991,2 53174  53.2160 103.4697 0001307 101.5071 258.6068 15.08840521 82521,6917.879,95.438,540.648,538.84,0.0
53174.0,STARLINK-4205,PAYLOAD,2024-01-14 11:26:40,15.08775248,0.0001768,53.2164,99.0081,121.6841,238.4324,0.00086238,0.00013439,0.0,0 STARLINK-4205,1 53174U 22083AU  24014.47686044  .00013439  00000-0  86238-3 0  9995,2 53174  53.2164  99.0081 0001768 121.6841 238.4324 15.08775248 83313,6918.078,95.442,541.166,538.72,0.0
53174.0,STARLINK-4205,PAYLOAD,2024-01-14 14:37:25,15.08833022,0.0001421,53.2168,98.413,110.8016,249.3129,0.00017616,2.516e-05,0.0,0 STARLINK-4205,1 53174U 22083AU  24014.60932842  .00002516  00000-0  17616-3 0  9998,2 53174  53.2168  98.4130 0001421 110.8016 249.3129 15.08833022 82694,6917.902,95.438,540.75,538.784,0.0
53174.0,STARLINK-4205,PAYLOAD,2024-01-15 12:52:48,15.08854721,0.0001453,53.2167,94.2536,87.472,272.6439,0.00014824,2.073e-05,0.0,0 STARLINK-4205,1 53174U 22083AU  24015.53667702  .00002073  00000-0  14824-3 0  9997,2 53174  53.2167  94.2536 0001453  87.4720 272.6439 15.08854721 82831,6917.835,95.437,540.706,538.695,0.0
53174.0,STARLINK-4205,PAYLOAD,2024-01-16 11:08:13,15.08841839,0.0001553,53.2169,90.0897,96.742,263.3749,4.8595e-05,4.86e-06,0.0,0 STARLINK-4205,1 53174U 22083AU  24016.46404870  .00000486  00000-0  48595-4 0  9994,2 53174  53.2169  90.0897 0001553  96.7420 263.3749 15.08841839 83612,6917.875,95.437,540.814,538.665,0.0
53174.0,STARLINK-4205,PAYLOAD,2024-01-16 14:18:59,15.08847257,0.0001575,53.2172,89.4938,99.9501,260.1669,9.2531e-05,1.185e-05,0.0,0 STARLINK-4205,1 53174U 22083AU  24016.59652359  .00001185  00000-0  92531-4 0  9991,2 53174  53.2172  89.4938 0001575  99.9501 260.1669 15.08847257 82999,6917.858,95.437,540.813,538.634,0.0
53174.0,STARLINK-4205,PAYLOAD,2024-01-16 23:51:19,15.08833814,0.0001512,53.2172,87.711,114.6742,245.4408,-2.0592e-05,-6.16e-06,0.0,0 STARLINK-4205,1 53174U 22083AU  24016.99397403 -.00000616  00000-0 -20592-4 0  9999,2 53174  53.2172  87.7110 0001512 114.6742 245.4408 15.08833814 83694,6917.899,95.438,540.81,538.718,0.0
53174.0,STARLINK-4205,PAYLOAD,2024-01-17 09:23:38,15.08843629,0.0001751,53.2169,85.9283,87.4583,272.661,-8.4236e-05,-1.629e-05,0.0,0 STARLINK-4205,1 53174U 22083AU  24017.39141288 -.00001629  00000-0 -84236-4 0  9992,2 53174  53.2169  85.9283 0001751  87.4583 272.6610 15.08843629 83115,6917.869,95.437,540.946,538.523,0.0
53174.0,STARLINK-4205,PAYLOAD,2024-01-18 10:49:48,15.08837792,0.0001804,53.2179,81.1712,109.069,251.0498,9.2779e-05,1.189e-05,0.0,0 STARLINK-4205,1 53174U 22083AU  24018.45125346  .00001189  00000-0  92779-4 0  9997,2 53174  53.2179  81.1712 0001804 109.0690 251.0498 15.08837792 83917,6917.887,95.438,541.0,538.504,0.0
53174.0,STARLINK-4205,PAYLOAD,2024-01-19 10:40:35,15.08839992,0.0001688,53.2185,76.7134,100.6571,259.4611,0.00026709,3.965e-05,0.0,0 STARLINK-4205,1 53174U 22083AU  24019.44485236  .00003965  00000-0  26709-3 0  9997,2 53174  53.2185  76.7134 0001688 100.6571 259.4611 15.08839992 83426,6917.88,95.438,540.913,538.578,0.0
53174.0,STARLINK-4205,PAYLOAD,2024-01-20 04:09:50,15.08838853,0.0001669,53.2174,73.4432,96.6843,263.4339,1.4557e-05,-5.6e-07,0.0,0 STARLINK-4205,1 53174U 22083AU  24020.17349782 -.00000056  00000-0  14557-4 0  9992,2 53174  53.2174  73.4432 0001669  96.6843 263.4339 15.08838853 84174,6917.884,95.438,540.903,538.594,0.0
53174.0,STARLINK-4205,PAYLOAD,2024-01-20 10:31:22,15.088399,0.0001636,53.2184,72.2546,88.9971,271.1209,3.8831e-05,3.3e-06,0.0,0 STARLINK-4205,1 53174U 22083AU  24020.43845671  .00000330  00000-0  38831-4 0  9994,2 53174  53.2184  72.2546 0001636  88.9971 271.1209 15.08839900 83577,6917.881,95.438,540.877,538.614,0.0
53174.0,STARLINK-4205,PAYLOAD,2024-01-21 02:25:13,15.08840123,0.0001664,53.2172,69.2781,88.9757,271.1426,5.2653e-05,5.5e-06,0.0,0 STARLINK-4205,1 53174U 22083AU  24021.10085565  .00000550  00000-0  52653-4 0  9999,2 53174  53.2172  69.2781 0001664  88.9757 271.1426 15.08840123 83675,6917.88,95.438,540.896,538.594,0.0
53174.0,STARLINK-4205,PAYLOAD,2024-01-21 10:22:09,15.08839992,0.0001283,53.2188,67.7873,73.5492,286.5641,7.2943e-05,8.73e-06,0.0,0 STARLINK-4205,1 53174U 22083AU  24021.43205599  .00000873  00000-0  72943-4 0  9998,2 53174  53.2188  67.7873 0001283  73.5492 286.5641 15.08839992 84368,6917.88,95.438,540.633,538.858,0.0
53174.0,STARLINK-4205,PAYLOAD,2024-01-21 11:57:32,15.08844984,0.0001717,53.2187,67.4893,90.7245,269.3944,2.7208e-05,1.45e-06,0.0,0 STARLINK-4205,1 53174U 22083AU  24021.49829407  .00000145  00000-0  27208-4 0  9990,2 53174  53.2187  67.4893 0001717  90.7245 269.3944 15.08844984 83737,6917.865,95.437,540.918,538.542,0.0
53174.0,STARLINK-4205,PAYLOAD,2024-01-22 07:02:10,15.08828439,0.0001424,53.2195,63.9215,84.4141,275.7013,0.00022713,3.328e-05,0.0,0 STARLINK-4205,1 53174U 22083AU  24022.29318108  .00003328  00000-0  22713-3 0  9991,2 53174  53.2195  63.9215 0001424  84.4141 275.7013 15.08828439 83853,6917.916,95.438,540.766,538.796,0.0
53174.0,STARLINK-4205,PAYLOAD,2024-01-22 11:48:19,15.08851326,0.0001735,53.2195,63.0242,88.6514,271.4677,6.8988e-05,8.1e-06,0.0,0 STARLINK-4205,1 53174U 22083AU  24022.49188942  .00000810  00000-0  68988-4 0  9992,2 53174  53.2195  63.0242 0001735  88.6514 271.4677 15.08851326 84524,6917.846,95.437,540.911,538.511,0.0
53174.0,STARLINK-4205,PAYLOAD,2024-01-23 06:52:57,15.08841448,0.000182,53.219,59.4591,109.5927,250.5261,3.5341e-05,2.74e-06,0.0,0 STARLINK-4205,1 53174U 22083AU  24023.28677686  .00000274  00000-0  35341-4 0  9999,2 53174  53.2190  59.4591 0001820 109.5927 250.5261 15.08841448 84005,6917.876,95.437,541.0,538.482,0.0
53174.0,STARLINK-4205,PAYLOAD,2024-01-23 10:03:43,15.08842316,0.0001898,53.2194,58.8651,68.3631,291.7563,5.6213e-05,6.07e-06,0.0,0 STARLINK-4205,1 53174U 22083AU  24023.41925849  .00000607  00000-0  56213-4 0  9992,2 53174  53.2194  58.8651 0001898  68.3631 291.7563 15.08842316 84667,6917.873,95.437,541.051,538.425,0.0
53174.0,STARLINK-4205,PAYLOAD,2024-01-24 08:19:08,15.08841538,0.000181,53.2189,54.7045,76.3379,283.7814,2.7902e-06,-2.44e-06,0.0,0 STARLINK-4205,1 53174U 22083AU  24024.34662213 -.00000244  00000-0  27902-5 0  9990,2 53174  53.2189  54.7045 0001810  76.3379 283.7814 15.08841538 84165,6917.876,95.437,540.993,538.489,0.0
53174.0,STARLINK-4205,PAYLOAD,2024-01-25 08:09:55,15.08834597,0.0002039,53.2202,50.2403,60.8748,299.2448,0.00020331,2.949e-05,0.0,0 STARLINK-4205,1 53174U 22083AU  24025.34022172  .00002949  00000-0  20331-3 0  9995,2 53174  53.2202  50.2403 0002039  60.8748 299.2448 15.08834597 84311,6917.897,95.438,541.172,538.351,0.0
53174.0,STARLINK-4205,PAYLOAD,2024-01-26 08:00:41,15.08845233,0.0001669,53.2193,45.7851,100.1352,259.9829,9.1162e-05,1.163e-05,0.0,0 STARLINK-4205,1 53174U 22083AU  24026.33381572  .00001163  00000-0  91162-4 0  9995,2 53174  53.2193  45.7851 0001669 100.1352 259.9829 15.08845233 85106,6917.864,95.437,540.884,538.575,0.0
